SUOMI NPP               
1 37849U 11061A   26165.59158649  .00000045  00000+0  42349-4 0  9991
2 37849  98.7954 106.4854 0001678  13.1989 346.9230 14.19516821758078
YAOGAN-12               
1 37875U 11066B   26165.64383427  .00008762  00000+0  33711-3 0  9991
2 37875  97.1143 204.3318 0008500 227.0744 132.9783 15.26580259811654
BEIDOU-2 M4             
1 38251U 12018B   26164.36225567 -.00000070  00000+0  00000+0 0  9992
2 38251  55.6617 304.2191 0011287 276.0779  83.7740  1.86229521 95872
ARIRANG-3 (KOMPSAT-3)   
1 38338U 12025B   26165.63763788  .00000366  00000+0  81933-4 0  9995
2 38338  98.1176 123.1415 0006593 115.8051 244.3832 14.62204109750973
METOP-B                 
1 38771U 12049A   26165.58514557  .00000093  00000+0  62260-4 0  9993
2 38771  98.6505 217.1362 0002392  26.0835 334.0463 14.21432037712890
SJ-9A                   
1 38860U 12056A   26165.60477763  .00000804  00000+0  98818-4 0  9998
2 38860  97.6708 137.6496 0023945 265.7572  94.0907 14.85474058699208
COSMOS 2484 (RODNIK-S 6)
1 39059U 13001C   26165.57028440  .00000070  00000+0  43444-3 0  9999
2 39059  82.5024 223.5193 0026968  42.2197 318.0953 12.42939048608230
SARAL                   
1 39086U 13009A   26165.59683802  .00000083  00000+0  46464-4 0  9998
2 39086  98.5555 352.1969 0000829 324.7701  35.3428 14.32855376695237
STRAND-1                
1 39090U 13009E   26165.48000094  .00000242  00000+0  95730-4 0  9994
2 39090  98.3921 345.7811 0007605 234.4727 125.5751 14.37161905696678
BRITE-AUSTRIA           
1 39091U 13009F   26165.49170768  .00000150  00000+0  65713-4 0  9998
2 39091  98.3993 344.9942 0009057 245.5657 114.4585 14.36541132696666
GAOFEN-1                
1 39150U 13018A   26165.62338653  .00000856  00000+0  12993-3 0  9992
2 39150  97.9102 237.7433 0015708 275.5588  84.3831 14.76534929707863
NEE-01 PEGASO           
1 39151U 13018B   26165.31799982  .00002150  00000+0  20906-3 0  9997
2 39151  98.1215 309.3736 0012835 168.5620 191.5892 14.93647786710272
PROBA-V                 
1 39159U 13021A   26165.51861898  .00000056  00000+0  42453-4 0  9992
2 39159  98.3582 144.2569 0005035 129.6694 230.4931 14.23596478680730
ARIRANG-5 (KOMPSAT-5)   
1 39227U 13042A   26165.57223373  .00001266  00000+0  94839-4 0  9996
2 39227  97.6206 352.3101 0005209 126.6933 233.4773 15.04485110703464
GONETS-M 5              
1 39249U 13048A   26165.61951058  .00000105  00000+0  69025-3 0  9998
2 39249  82.4827 344.9838 0015978 216.2721 143.7277 12.42892100578561
GONETS-M 7              
1 39251U 13048C   26165.58251525  .00000100  00000+0  64768-3 0  9993
2 39251  82.4895 347.9280 0016761 217.7675 142.2229 12.42914916578514
FENGYUN 3C              
1 39260U 13052A   26165.64091539  .00000041  00000+0  41699-4 0  9995
2 39260  98.4986 139.6326 0015371  34.6702 325.5472 14.15754480658203
CASSIOPE                
1 39265U 13055A   26165.47204066  .00047970 -45400-6  52514-3 0  9995
2 39265  80.9158  70.0186 0293684  71.5638 291.7279 15.24952306667252
APRIZESAT 7             
1 39416U 13066A   26165.60470993  .00001010  00000+0  10538-3 0  9998
2 39416  97.7709 118.8617 0034799 217.9769 141.8995 14.91558884680845
ZACUBE-1 (TSHEPISOSAT)  
1 39417U 13066B   26165.47443580  .00003221  00000+0  25184-3 0  9995
2 39417  97.8083 127.7968 0040509 257.1667 102.5029 15.01175277680327
APRIZESAT 8             
1 39425U 13066K   26165.58552050  .00000863  00000+0  99411-4 0  9993
2 39425  97.8221 113.0897 0044500 295.4143  64.2471 14.87648345679280
